OBJECT_NAME,OBJECT_ID,EPOCH,MEAN_MOTION,ECCENTRICITY,INCLINATION,RA_OF_ASC_NODE,ARG_OF_PERICENTER,MEAN_ANOMALY,EPHEMERIS_TYPE,CLASSIFICATION_TYPE,NORAD_CAT_ID,ELEMENT_SET_NO,REV_AT_EPOCH,BSTAR,MEAN_MOTION_DOT,MEAN_MOTION_DDOT
GSAT-29,2018-089A,2026-07-23T13:14:37.667040,1.00270062,.00033367,0.0129,49.0711,56.0226,89.8847,0,U,43698,999,2815,0,0,0
ES'HAIL 2,2018-090A,2026-07-23T13:06:23.457312,1.00273645,.00027018,0.0186,49.6880,107.0586,6.9459,0,U,43700,999,2804,0,0,0
GEO-KOMPSAT-2A,2018-100A,2026-07-23T13:00:38.746368,1.00270934,.00025224,0.0156,101.9759,357.0584,165.6569,0,U,43823,999,2799,0,-.339E-5,0
GSAT-11,2018-100B,2026-07-23T13:20:09.450816,1.00271770,.00080991,0.1112,264.3905,196.6771,114.2538,0,U,43824,999,2784,0,-.72E-6,0
GSAT-7A,2018-105A,2026-07-23T09:51:33.361920,1.00269286,.0002019,0.0213,64.5246,39.0414,48.2262,0,U,43864,999,2781,0,0,0
COSMOS 2533,2018-107A,2026-07-23T15:01:41.367936,1.00272099,.00002555,0.0337,119.3150,83.6239,33.8296,0,U,43867,999,2781,0,-.34E-6,0
TJS-3,2018-110A,2026-07-22T12:31:38.500896,1.00270949,.0002758,2.6334,80.0664,84.7757,111.5470,0,U,43874,999,2777,0,-.215E-5,0
ZHONGXING-2D,2019-001A,2026-07-23T15:18:46.687968,1.00272666,.00004027,0.0185,217.9135,179.3846,263.8000,0,U,43920,999,5444,0,-.332E-5,0
HELLAS-SAT 4 & SGS-1,2019-007A,2026-07-23T13:10:15.585600,1.00271743,.0005993,0.0663,125.8234,20.0027,32.0211,0,U,44034,999,2773,0,.157E-5,0
GSAT-31,2019-007B,2026-07-23T13:12:45.347040,1.00273444,.00011042,0.0339,98.8819,106.4081,342.0783,0,U,44035,999,2733,0,.13E-5,0
NUSANTARA SATU,2019-009A,2026-07-23T13:40:44.976000,1.00270461,.00049294,0.0309,119.1054,9.8799,163.4945,0,U,44048,999,2713,0,-.23E-5,0
ZHONGXING-6C,2019-012A,2026-07-22T22:12:31.421088,1.00272055,.00151142,0.0645,69.6138,345.7625,348.8834,0,U,44067,999,2709,0,-.331E-5,0
WGS 10 (USA 291),2019-014A,2026-07-23T09:50:48.433056,1.00271744,.00003507,0.0143,75.6894,358.5300,74.9204,0,U,44071,999,2698,0,.52E-6,0
TIANLIAN 2-01,2019-017A,2026-07-23T13:21:01.867104,1.00271795,.0001814,0.6310,83.0368,74.3859,61.1262,0,U,44076,999,2701,0,-.102E-5,0
ARABSAT-6A,2019-021A,2026-07-23T13:07:45.825024,1.00275389,.0002385,0.0440,11.0634,239.1164,278.5298,0,U,44186,999,2652,0,.158E-5,0
BEIDOU-3 IGSO-1,2019-023A,2026-07-22T10:37:38.665632,1.00281841,.00261943,58.7457,37.2857,223.4912,318.1363,0,U,44204,999,756,0,-.208E-5,0
YAMAL 601,2019-031A,2026-07-22T23:38:41.319744,1.00273126,.00027065,0.0206,94.3773,26.8481,223.1658,0,U,44307,999,2628,0,.124E-5,0
AT&T T-16,2019-034A,2026-07-23T02:14:23.451072,1.00273461,.00006317,0.0154,76.6092,292.9337,224.0216,0,U,44333,999,2599,0,-.111E-5,0
EUTELSAT 7C,2019-034B,2026-07-23T13:00:53.983872,1.00270518,.00035759,0.0767,184.7962,281.9022,36.7985,0,U,44334,999,720,0,.53E-6,0
BEIDOU-3 IGSO-2,2019-035A,2026-07-21T18:25:21.211104,1.00289985,.00390505,55.2573,158.5594,212.8700,322.7485,0,U,44337,999,2601,0,-.106E-5,0
COSMOS 2539,2019-048A,2026-07-22T07:57:29.208384,1.00274394,.00006536,0.0292,109.1828,79.5992,242.6658,0,U,44457,999,2557,0,.85E-6,0
EDRS-C,2019-049A,2026-07-23T13:39:45.071424,1.00271099,.00011378,0.0153,102.2338,23.1551,163.3362,0,U,44475,999,2557,0,-.257E-5,0
INTELSAT 39 (IS-39),2019-049B,2026-07-23T09:51:18.386208,1.00271663,.0000903,0.0158,46.1399,318.3964,146.3726,0,U,44476,999,2549,0,.38E-6,0
AMOS-17,2019-050A,2026-07-23T13:03:46.207584,1.00271134,.00017498,0.0238,333.4975,149.4206,31.2815,0,U,44479,999,2555,0,.114E-5,0
AEHF-5 (USA 292),2019-051A,2026-07-23T13:25:23.947680,1.00272042,.00646138,1.4244,339.0664,357.2457,259.4211,0,U,44481,999,2562,0,-.251E-5,0
EUTELSAT 5 WEST B,2019-067A,2026-07-23T09:32:20.203584,1.00272182,.00032982,0.0722,327.8629,152.2857,319.0524,0,U,44624,999,2480,0,-.37E-6,0
TJS-4,2019-070A,2026-07-23T15:05:33.497088,1.00273506,.00001706,0.0893,258.6565,334.6131,18.0759,0,U,44637,999,2490,0,-.166E-5,0
TIBA-1,2019-080A,2026-07-23T13:09:15.681888,1.00268859,.0002177,0.0507,2.7156,120.2219,51.1655,0,U,44800,999,2442,0,.161E-5,0
INMARSAT GX5,2019-080B,2026-07-23T13:02:16.351584,1.00272117,.00023585,0.0386,28.3001,99.6257,19.9107,0,U,44801,999,715,0,.79E-6,0
JCSAT-18 (KACIFIC 1),2019-091A,2026-07-23T12:31:38.644320,1.00271356,.00002947,0.0488,243.9103,291.9750,103.2353,0,U,44868,999,2437,0,-.196E-5,0
ELEKTRO-L 3,2019-095A,2026-07-23T15:03:26.199648,1.00271943,.00016598,0.3484,82.4060,19.4103,141.3837,0,U,44903,999,2407,0,-.92E-6,0
