GSAT-29                 
1 43698U 18089A   26204.55182485  .00000000  00000+0  00000+0 0  9996
2 43698   0.0129  49.0711 0003336  56.0226  89.8847  1.00270062 28150
ES'HAIL 2               
1 43700U 18090A   26204.54610483  .00000000  00000+0  00000+0 0  9995
2 43700   0.0186  49.6880 0002701 107.0586   6.9459  1.00273645 28048
GEO-KOMPSAT-2A          
1 43823U 18100A   26204.54211512 -.00000339  00000+0  00000+0 0  9999
2 43823   0.0156 101.9759 0002522 357.0584 165.6569  1.00270934 27990
GSAT-11                 
1 43824U 18100B   26204.55566494 -.00000072  00000+0  00000+0 0  9997
2 43824   0.1112 264.3905 0008099 196.6771 114.2538  1.00271770 27840
GSAT-7A                 
1 43864U 18105A   26204.41080280  .00000000  00000+0  00000+0 0  9995
2 43864   0.0213  64.5246 0002019  39.0414  48.2262  1.00269286 27819
COSMOS 2533             
1 43867U 18107A   26204.62617324 -.00000034  00000+0  00000+0 0  9996
2 43867   0.0337 119.3150 0000255  83.6239  33.8296  1.00272099 27815
TJS-3                   
1 43874U 18110A   26203.52197339 -.00000215  00000+0  00000+0 0  9996
2 43874   2.6334  80.0664 0002758  84.7757 111.5470  1.00270949 27774
ZHONGXING-2D            
1 43920U 19001A   26204.63804037 -.00000332  00000+0  00000+0 0  9991
2 43920   0.0185 217.9135 0000402 179.3846 263.8000  1.00272666 54442
HELLAS-SAT 4 & SGS-1    
1 44034U 19007A   26204.54879150  .00000157  00000+0  00000+0 0  9996
2 44034   0.0663 125.8234 0005993  20.0027  32.0211  1.00271743 27737
GSAT-31                 
1 44035U 19007B   26204.55052485  .00000130  00000+0  00000+0 0  9993
2 44035   0.0339  98.8819 0001104 106.4081 342.0783  1.00273444 27339
NUSANTARA SATU          
1 44048U 19009A   26204.56996500 -.00000230  00000+0  00000+0 0  9997
2 44048   0.0309 119.1054 0004929   9.8799 163.4945  1.00270461 27137
ZHONGXING-6C            
1 44067U 19012A   26203.92536367 -.00000331  00000+0  00000+0 0  9994
2 44067   0.0645  69.6138 0015114 345.7625 348.8834  1.00272055 27093
WGS 10 (USA 291)        
1 44071U 19014A   26204.41028279  .00000052  00000+0  00000+0 0  9993
2 44071   0.0143  75.6894 0000350 358.5300  74.9204  1.00271744 26984
TIANLIAN 2-01           
1 44076U 19017A   26204.55627161 -.00000102  00000+0  00000+0 0  9998
2 44076   0.6310  83.0368 0001814  74.3859  61.1262  1.00271795 27011
ARABSAT-6A              
1 44186U 19021A   26204.54705816  .00000158  00000+0  00000+0 0  9998
2 44186   0.0440  11.0634 0002385 239.1164 278.5298  1.00275389 26523
BEIDOU-3 IGSO-1         
1 44204U 19023A   26203.44280863 -.00000208  00000+0  00000+0 0  9996
2 44204  58.7457  37.2857 0026194 223.4912 318.1363  1.00281841  7567
YAMAL 601               
1 44307U 19031A   26203.98520046  .00000124  00000+0  00000+0 0  9994
2 44307   0.0206  94.3773 0002706  26.8481 223.1658  1.00273126 26282
AT&T T-16               
1 44333U 19034A   26204.09332698 -.00000111  00000+0  00000+0 0  9990
2 44333   0.0154  76.6092 0000631 292.9337 224.0216  1.00273461 25990
EUTELSAT 7C             
1 44334U 19034B   26204.54229148  .00000053  00000+0  00000+0 0  9990
2 44334   0.0767 184.7962 0003575 281.9022  36.7985  1.00270518  7202
BEIDOU-3 IGSO-2         
1 44337U 19035A   26202.76760661 -.00000106  00000+0  00000+0 0  9996
2 44337  55.2573 158.5594 0039050 212.8700 322.7485  1.00289985 26016
COSMOS 2539             
1 44457U 19048A   26203.33158806  .00000085  00000+0  00000+0 0  9994
2 44457   0.0292 109.1828 0000653  79.5992 242.6658  1.00274394 25575
EDRS-C                  
1 44475U 19049A   26204.56927166 -.00000257  00000+0  00000+0 0  9996
2 44475   0.0153 102.2338 0001137  23.1551 163.3362  1.00271099 25575
INTELSAT 39 (IS-39)     
1 44476U 19049B   26204.41062947  .00000038  00000+0  00000+0 0  9994
2 44476   0.0158  46.1399 0000903 318.3964 146.3726  1.00271663 25494
AMOS-17                 
1 44479U 19050A   26204.54428481  .00000114  00000+0  00000+0 0  9997
2 44479   0.0238 333.4975 0001749 149.4206  31.2815  1.00271134 25550
AEHF-5 (USA 292)        
1 44481U 19051A   26204.55930495 -.00000251  00000+0  00000+0 0  9998
2 44481   1.4244 339.0664 0064613 357.2457 259.4211  1.00272042 25629
EUTELSAT 5 WEST B       
1 44624U 19067A   26204.39745606 -.00000037  00000+0  00000+0 0  9996
2 44624   0.0722 327.8629 0003298 152.2857 319.0524  1.00272182 24803
TJS-4                   
1 44637U 19070A   26204.62885992 -.00000166  00000+0  00000+0 0  9996
2 44637   0.0893 258.6565 0000170 334.6131  18.0759  1.00273506 24901
TIBA-1                  
1 44800U 19080A   26204.54809817  .00000161  00000+0  00000+0 0  9996
2 44800   0.0507   2.7156 0002177 120.2219  51.1655  1.00268859 24429
INMARSAT GX5            
1 44801U 19080B   26204.54324481  .00000079  00000+0  00000+0 0  9994
2 44801   0.0386  28.3001 0002358  99.6257  19.9107  1.00272117  7157
JCSAT-18 (KACIFIC 1)    
1 44868U 19091A   26204.52197505 -.00000196  00000+0  00000+0 0  9993
2 44868   0.0488 243.9103 0000294 291.9750 103.2353  1.00271356 24370
ELEKTRO-L 3             
1 44903U 19095A   26204.62738657 -.00000092  00000+0  00000+0 0  9992
2 44903   0.3484  82.4060 0001659  19.4103 141.3837  1.00271943 24077
